CCSDS_OMM_VERS = 2.0
CREATION_DATE  = 
ORIGINATOR     = 

OBJECT_NAME    = STARLINK-35719
OBJECT_ID      = 2025-303W
CENTER_NAME    = EARTH
REF_FRAME      = TEME
TIME_SYSTEM    = UTC
MEAN_ELEMENT_THEORY = SGP/SGP4

EPOCH          = 2025-12-17T14:36:01.999872
MEAN_MOTION    = 16.01284782
ECCENTRICITY   = .00115
INCLINATION    = 43.0100
RA_OF_ASC_NODE = 69.0834
ARG_OF_PERICENTER = 323.6500
MEAN_ANOMALY   = 9.4800

EPHEMERIS_TYPE = 0
CLASSIFICATION_TYPE = U
NORAD_CAT_ID   = 67183
ELEMENT_SET_NO = 999
REV_AT_EPOCH   = 1
BSTAR          = 0
MEAN_MOTION_DOT = -.2699E-4
MEAN_MOTION_DDOT = .8533731E-5

CCSDS_OMM_VERS = 2.0
CREATION_DATE  = 
ORIGINATOR     = 

OBJECT_NAME    = STARLINK-35910
OBJECT_ID      = 2025-303X
CENTER_NAME    = EARTH
REF_FRAME      = TEME
TIME_SYSTEM    = UTC
MEAN_ELEMENT_THEORY = SGP/SGP4

EPOCH          = 2025-12-17T14:36:01.999872
MEAN_MOTION    = 16.01284782
ECCENTRICITY   = .00115
INCLINATION    = 43.0100
RA_OF_ASC_NODE = 69.0834
ARG_OF_PERICENTER = 323.6500
MEAN_ANOMALY   = 9.4800

EPHEMERIS_TYPE = 0
CLASSIFICATION_TYPE = U
NORAD_CAT_ID   = 67184
ELEMENT_SET_NO = 999
REV_AT_EPOCH   = 1
BSTAR          = 0
MEAN_MOTION_DOT = -.2699E-4
MEAN_MOTION_DDOT = .8533731E-5

CCSDS_OMM_VERS = 2.0
CREATION_DATE  = 
ORIGINATOR     = 

OBJECT_NAME    = STARLINK-35859
OBJECT_ID      = 2025-303Y
CENTER_NAME    = EARTH
REF_FRAME      = TEME
TIME_SYSTEM    = UTC
MEAN_ELEMENT_THEORY = SGP/SGP4

EPOCH          = 2025-12-17T14:36:01.999872
MEAN_MOTION    = 16.01284782
ECCENTRICITY   = .00115
INCLINATION    = 43.0100
RA_OF_ASC_NODE = 69.0834
ARG_OF_PERICENTER = 323.6500
MEAN_ANOMALY   = 9.4800

EPHEMERIS_TYPE = 0
CLASSIFICATION_TYPE = U
NORAD_CAT_ID   = 67185
ELEMENT_SET_NO = 999
REV_AT_EPOCH   = 1
BSTAR          = 0
MEAN_MOTION_DOT = -.2699E-4
MEAN_MOTION_DDOT = .8533731E-5

CCSDS_OMM_VERS = 2.0
CREATION_DATE  = 
ORIGINATOR     = 

OBJECT_NAME    = STARLINK-35857
OBJECT_ID      = 2025-303Z
CENTER_NAME    = EARTH
REF_FRAME      = TEME
TIME_SYSTEM    = UTC
MEAN_ELEMENT_THEORY = SGP/SGP4

EPOCH          = 2025-12-17T14:36:01.999872
MEAN_MOTION    = 16.01284782
ECCENTRICITY   = .00115
INCLINATION    = 43.0100
RA_OF_ASC_NODE = 69.0834
ARG_OF_PERICENTER = 323.6500
MEAN_ANOMALY   = 9.4800

EPHEMERIS_TYPE = 0
CLASSIFICATION_TYPE = U
NORAD_CAT_ID   = 67186
ELEMENT_SET_NO = 999
REV_AT_EPOCH   = 1
BSTAR          = 0
MEAN_MOTION_DOT = -.2699E-4
MEAN_MOTION_DDOT = .8533731E-5

CCSDS_OMM_VERS = 2.0
CREATION_DATE  = 
ORIGINATOR     = 

OBJECT_NAME    = STARLINK-35880
OBJECT_ID      = 2025-303AA
CENTER_NAME    = EARTH
REF_FRAME      = TEME
TIME_SYSTEM    = UTC
MEAN_ELEMENT_THEORY = SGP/SGP4

EPOCH          = 2025-12-17T14:36:01.999872
MEAN_MOTION    = 16.01284782
ECCENTRICITY   = .00115
INCLINATION    = 43.0100
RA_OF_ASC_NODE = 69.0834
ARG_OF_PERICENTER = 323.6500
MEAN_ANOMALY   = 9.4800

EPHEMERIS_TYPE = 0
CLASSIFICATION_TYPE = U
NORAD_CAT_ID   = 67187
ELEMENT_SET_NO = 999
REV_AT_EPOCH   = 1
BSTAR          = 0
MEAN_MOTION_DOT = -.2699E-4
MEAN_MOTION_DDOT = .8533731E-5

CCSDS_OMM_VERS = 2.0
CREATION_DATE  = 
ORIGINATOR     = 

OBJECT_NAME    = STARLINK-35675
OBJECT_ID      = 2025-303AB
CENTER_NAME    = EARTH
REF_FRAME      = TEME
TIME_SYSTEM    = UTC
MEAN_ELEMENT_THEORY = SGP/SGP4

EPOCH          = 2025-12-17T14:36:01.999872
MEAN_MOTION    = 16.01284782
ECCENTRICITY   = .00115
INCLINATION    = 43.0100
RA_OF_ASC_NODE = 69.0834
ARG_OF_PERICENTER = 323.6500
MEAN_ANOMALY   = 9.4800

EPHEMERIS_TYPE = 0
CLASSIFICATION_TYPE = U
NORAD_CAT_ID   = 67188
ELEMENT_SET_NO = 999
REV_AT_EPOCH   = 1
BSTAR          = 0
MEAN_MOTION_DOT = -.2699E-4
MEAN_MOTION_DDOT = .8533731E-5

CCSDS_OMM_VERS = 2.0
CREATION_DATE  = 
ORIGINATOR     = 

OBJECT_NAME    = STARLINK-35889
OBJECT_ID      = 2025-303AC
CENTER_NAME    = EARTH
REF_FRAME      = TEME
TIME_SYSTEM    = UTC
MEAN_ELEMENT_THEORY = SGP/SGP4

EPOCH          = 2025-12-17T14:36:01.999872
MEAN_MOTION    = 16.01284782
ECCENTRICITY   = .00115
INCLINATION    = 43.0100
RA_OF_ASC_NODE = 69.0834
ARG_OF_PERICENTER = 323.6500
MEAN_ANOMALY   = 9.4800

EPHEMERIS_TYPE = 0
CLASSIFICATION_TYPE = U
NORAD_CAT_ID   = 67189
ELEMENT_SET_NO = 999
REV_AT_EPOCH   = 1
BSTAR          = 0
MEAN_MOTION_DOT = -.2699E-4
MEAN_MOTION_DDOT = .8533731E-5

CCSDS_OMM_VERS = 2.0
CREATION_DATE  = 
ORIGINATOR     = 

OBJECT_NAME    = STARLINK-35888
OBJECT_ID      = 2025-303AD
CENTER_NAME    = EARTH
REF_FRAME      = TEME
TIME_SYSTEM    = UTC
MEAN_ELEMENT_THEORY = SGP/SGP4

EPOCH          = 2025-12-17T14:36:01.999872
MEAN_MOTION    = 16.01284782
ECCENTRICITY   = .00115
INCLINATION    = 43.0100
RA_OF_ASC_NODE = 69.0834
ARG_OF_PERICENTER = 323.6500
MEAN_ANOMALY   = 9.4800

EPHEMERIS_TYPE = 0
CLASSIFICATION_TYPE = U
NORAD_CAT_ID   = 67190
ELEMENT_SET_NO = 999
REV_AT_EPOCH   = 1
BSTAR          = 0
MEAN_MOTION_DOT = -.2699E-4
MEAN_MOTION_DDOT = .8533731E-5

CCSDS_OMM_VERS = 2.0
CREATION_DATE  = 
ORIGINATOR     = 

OBJECT_NAME    = STARLINK-35716
OBJECT_ID      = 2025-303AE
CENTER_NAME    = EARTH
REF_FRAME      = TEME
TIME_SYSTEM    = UTC
MEAN_ELEMENT_THEORY = SGP/SGP4

EPOCH          = 2025-12-17T14:36:01.999872
MEAN_MOTION    = 16.01284782
ECCENTRICITY   = .00115
INCLINATION    = 43.0100
RA_OF_ASC_NODE = 69.0834
ARG_OF_PERICENTER = 323.6500
MEAN_ANOMALY   = 9.4800

EPHEMERIS_TYPE = 0
CLASSIFICATION_TYPE = U
NORAD_CAT_ID   = 67191
ELEMENT_SET_NO = 999
REV_AT_EPOCH   = 1
BSTAR          = 0
MEAN_MOTION_DOT = -.2699E-4
MEAN_MOTION_DDOT = .8533731E-5

CCSDS_OMM_VERS = 2.0
CREATION_DATE  = 
ORIGINATOR     = 

OBJECT_NAME    = STARLINK-36182
OBJECT_ID      = 2025-304A
CENTER_NAME    = EARTH
REF_FRAME      = TEME
TIME_SYSTEM    = UTC
MEAN_ELEMENT_THEORY = SGP/SGP4

EPOCH          = 2026-01-08T04:00:01.998720
MEAN_MOTION    = 15.42704154
ECCENTRICITY   = .0003443
INCLINATION    = 70.0001
RA_OF_ASC_NODE = 333.3280
ARG_OF_PERICENTER = 272.8952
MEAN_ANOMALY   = 41.6687

EPHEMERIS_TYPE = 0
CLASSIFICATION_TYPE = U
NORAD_CAT_ID   = 67192
ELEMENT_SET_NO = 999
REV_AT_EPOCH   = 468
BSTAR          = .90457E-3
MEAN_MOTION_DOT = .39659E-3
MEAN_MOTION_DDOT = 0

CCSDS_OMM_VERS = 2.0
CREATION_DATE  = 
ORIGINATOR     = 

OBJECT_NAME    = STARLINK-36279
OBJECT_ID      = 2025-304B
CENTER_NAME    = EARTH
REF_FRAME      = TEME
TIME_SYSTEM    = UTC
MEAN_ELEMENT_THEORY = SGP/SGP4

EPOCH          = 2026-01-08T02:23:18.032928
MEAN_MOTION    = 15.52561886
ECCENTRICITY   = .0002978
INCLINATION    = 70.0000
RA_OF_ASC_NODE = 333.4421
ARG_OF_PERICENTER = 259.6230
MEAN_ANOMALY   = 100.4621

EPHEMERIS_TYPE = 0
CLASSIFICATION_TYPE = U
NORAD_CAT_ID   = 67193
ELEMENT_SET_NO = 999
REV_AT_EPOCH   = 465
BSTAR          = .67389E-3
MEAN_MOTION_DOT = .41571E-3
MEAN_MOTION_DDOT = 0

CCSDS_OMM_VERS = 2.0
CREATION_DATE  = 
ORIGINATOR     = 

OBJECT_NAME    = STARLINK-36284
OBJECT_ID      = 2025-304C
CENTER_NAME    = EARTH
REF_FRAME      = TEME
TIME_SYSTEM    = UTC
MEAN_ELEMENT_THEORY = SGP/SGP4

EPOCH          = 2026-01-08T02:22:58.178208
MEAN_MOTION    = 15.51866170
ECCENTRICITY   = .0002974
INCLINATION    = 70.0002
RA_OF_ASC_NODE = 333.4411
ARG_OF_PERICENTER = 290.0228
MEAN_ANOMALY   = 70.0638

EPHEMERIS_TYPE = 0
CLASSIFICATION_TYPE = U
NORAD_CAT_ID   = 67194
ELEMENT_SET_NO = 999
REV_AT_EPOCH   = 465
BSTAR          = -.48046E-2
MEAN_MOTION_DOT = -.278992E-2
MEAN_MOTION_DDOT = 0

